@id 8ShjU3bhJ4mMNaVN
@title KRHV metar at 1:50 UTC: SPECI KRHV 180150Z 25014G20KT 10SM BKN028 OVC080 16/08 A2990=
@created 1634581590098
