@id PQxBnL4584JBOLxm
@title KRHV metar at 0:50 UTC (5:50pm local time): SPECI KRHV 180050Z 22009KT 10SM FEW030 SCT080 BKN120 18/07 A2987=
@created 1634581590098
